start=new Date('2021-09-01T00:00:00.000Z').valueOf();
sats=[{"APOAPSIS":"547.785","ECCENTRICITY":"0.00007450","GP_ID":"183840537","REF_FRAME":"TEME","INCLINATION":"53.0544","MEAN_ELEMENT_THEORY":"SGP4","ARG_OF_PERICENTER":"104.3486","FILE":"3106454","COUNTRY_CODE":"US","MEAN_MOTION_DOT":"-0.00002189","MEAN_ANOMALY":"255.7586","RA_OF_ASC_NODE":"288.7168","EPHEMERIS_TYPE":"0","EPOCH":"2021-08-31T14:06:03.163968","PERIAPSIS":"546.753","LAUNCH_DATE":"2020-04-22","ELEMENT_SET_NO":"999","TLE_LINE1":"1 45572U 20025AT  21243.58753662 -.00002189  00000-0 -12819-3 0  9992","TLE_LINE2":"2 45572  53.0544 288.7168 0000745 104.3486 255.7586 15.06381888 76658","OBJECT_NAME":"STARLINK-1320","OBJECT_TYPE":"PAYLOAD","DECAY_DATE":null,"CENTER_NAME":"EARTH","OBJECT_ID":"2020-025AT","CLASSIFICATION_TYPE":"U","SEMIMAJOR_AXIS":"6925.404","MEAN_MOTION":"15.06381888","TIME_SYSTEM":"UTC","MEAN_MOTION_DDOT":"0.0000000000000","BSTAR":"-0.00012819000000","SITE":"AFETR","REV_AT_EPOCH":"7665","PERIOD":"95.593","RCS_SIZE":"LARGE","NORAD_CAT_ID":"45572"},{"BSTAR":"-0.00008656400000","TIME_SYSTEM":"UTC","MEAN_MOTION_DDOT":"0.0000000000000","SEMIMAJOR_AXIS":"6925.410","MEAN_MOTION":"15.06379914","NORAD_CAT_ID":"45573","RCS_SIZE":"LARGE","PERIOD":"95.593","REV_AT_EPOCH":"7635","SITE":"AFETR","CENTER_NAME":"EARTH","OBJECT_ID":"2020-025AU","CLASSIFICATION_TYPE":"U","TLE_LINE2":"2 45573  53.0542 288.5127 0001144  84.1607 275.9512 15.06379914 76351","ELEMENT_SET_NO":"999","LAUNCH_DATE":"2020-04-22","TLE_LINE1":"1 45573U 20025AU  21243.63176942 -.00001570  00000-0 -86564-4 0  9991","EPOCH":"2021-08-31T15:09:44.877888","PERIAPSIS":"546.483","OBJECT_TYPE":"PAYLOAD","DECAY_DATE":null,"OBJECT_NAME":"STARLINK-1321","ARG_OF_PERICENTER":"84.1607","MEAN_ELEMENT_THEORY":"SGP4","REF_FRAME":"TEME","INCLINATION":"53.0542","GP_ID":"183839785","APOAPSIS":"548.067","ECCENTRICITY":"0.00011440","EPHEMERIS_TYPE":"0","RA_OF_ASC_NODE":"288.5127","MEAN_ANOMALY":"275.9512","MEAN_MOTION_DOT":"-0.00001570","COUNTRY_CODE":"US","FILE":"3106454"},{"INCLINATION":"53.0545","REF_FRAME":"TEME","MEAN_ELEMENT_THEORY":"SGP4","ARG_OF_PERICENTER":"99.2801","ECCENTRICITY":"0.00008820","APOAPSIS":"547.858","GP_ID":"183840035","RA_OF_ASC_NODE":"288.6959","EPHEMERIS_TYPE":"0","COUNTRY_CODE":"US","FILE":"3106454","MEAN_ANOMALY":"260.8287","MEAN_MOTION_DOT":"-0.00000405","TLE_LINE2":"2 45574  53.0545 288.6959 0000882  99.2801 260.8287 15.06389119 76664","PERIAPSIS":"546.636","EPOCH":"2021-08-31T14:11:21.342336","TLE_LINE1":"1 45574U 20025AV  21243.59121924 -.00000405  00000-0 -83012-5 0  9999","LAUNCH_DATE":"2020-04-22","ELEMENT_SET_NO":"999","DECAY_DATE":null,"OBJECT_TYPE":"PAYLOAD","OBJECT_NAME":"STARLINK-1324","OBJECT_ID":"2020-025AV","CENTER_NAME":"EARTH","CLASSIFICATION_TYPE":"U","BSTAR":"-0.00000830120000","MEAN_MOTION":"15.06389119","SEMIMAJOR_AXIS":"6925.382","MEAN_MOTION_DDOT":"0.0000000000000","TIME_SYSTEM":"UTC","PERIOD":"95.593","RCS_SIZE":"LARGE","NORAD_CAT_ID":"45574","REV_AT_EPOCH":"7666","SITE":"AFETR"},{"TLE_LINE2":"2 45575  53.0012 286.9808 0000982  78.6502 281.4597 15.07662250 76651","PERIAPSIS":"542.668","EPOCH":"2021-08-31T09:46:10.142976","TLE_LINE1":"1 45575U 20025AW  21243.40706184  .00004522  00000-0  31165-3 0  9999","LAUNCH_DATE":"2020-04-22","ELEMENT_SET_NO":"999","DECAY_DATE":null,"OBJECT_TYPE":"PAYLOAD","OBJECT_NAME":"STARLINK-1326","INCLINATION":"53.0012","REF_FRAME":"TEME","ARG_OF_PERICENTER":"78.6502","MEAN_ELEMENT_THEORY":"SGP4","ECCENTRICITY":"0.00009820","APOAPSIS":"544.027","GP_ID":"183814701","RA_OF_ASC_NODE":"286.9808","EPHEMERIS_TYPE":"0","COUNTRY_CODE":"US","FILE":"3106313","MEAN_MOTION_DOT":"0.00004522","MEAN_ANOMALY":"281.4597","BSTAR":"0.00031165000000","MEAN_MOTION":"15.07662250","SEMIMAJOR_AXIS":"6921.483","MEAN_MOTION_DDOT":"0.0000000000000","TIME_SYSTEM":"UTC","PERIOD":"95.512","RCS_SIZE":"LARGE","NORAD_CAT_ID":"45575","REV_AT_EPOCH":"7665","SITE":"AFETR","OBJECT_ID":"2020-025AW","CENTER_NAME":"EARTH","CLASSIFICATION_TYPE":"U"},{"GP_ID":"183812963","APOAPSIS":"547.811","ECCENTRICITY":"0.00007980","ARG_OF_PERICENTER":"87.3019","MEAN_ELEMENT_THEORY":"SGP4","REF_FRAME":"TEME","INCLINATION":"53.0535","MEAN_ANOMALY":"272.8062","MEAN_MOTION_DOT":"-0.00000784","COUNTRY_CODE":"US","FILE":"3106313","EPHEMERIS_TYPE":"0","RA_OF_ASC_NODE":"289.1780","ELEMENT_SET_NO":"999","LAUNCH_DATE":"2020-04-22","TLE_LINE1":"1 45576U 20025AX  21243.48432170 -.00000784  00000-0 -33788-4 0  9991","EPOCH":"2021-08-31T11:37:25.394880","PERIAPSIS":"546.706","TLE_LINE2":"2 45576  53.0535 289.1780 0000798  87.3019 272.8062 15.06385414 76644","OBJECT_NAME":"STARLINK-1328","OBJECT_TYPE":"PAYLOAD","DECAY_DATE":null,"CENTER_NAME":"EARTH","OBJECT_ID":"2020-025AX","CLASSIFICATION_TYPE":"U","TIME_SYSTEM":"UTC","MEAN_MOTION_DDOT":"0.0000000000000","SEMIMAJOR_AXIS":"6925.393","MEAN_MOTION":"15.06385414","BSTAR":"-0.00003378800000","SITE":"AFETR","REV_AT_EPOCH":"7664","NORAD_CAT_ID":"45576","PERIOD":"95.593","RCS_SIZE":"LARGE"},{"TLE_LINE2":"2 45577  53.0550 287.2907 0000965  98.7950 261.3148 15.06392871 76696","TLE_LINE1":"1 45577U 20025AY  21243.90451456 -.00000011  00000-0  18119-4 0  9990","LAUNCH_DATE":"2020-04-22","ELEMENT_SET_NO":"999","PERIAPSIS":"546.567","EPOCH":"2021-08-31T21:42:30.057984","DECAY_DATE":null,"OBJECT_TYPE":"PAYLOAD","OBJECT_NAME":"STARLINK-1330","ARG_OF_PERICENTER":"98.7950","MEAN_ELEMENT_THEORY":"SGP4","INCLINATION":"53.0550","REF_FRAME":"TEME","GP_ID":"183839286","ECCENTRICITY":"0.00009650","APOAPSIS":"547.904","EPHEMERIS_TYPE":"0","RA_OF_ASC_NODE":"287.2907","MEAN_MOTION_DOT":"-0.00000011","MEAN_ANOMALY":"261.3148","FILE":"3106454","COUNTRY_CODE":"US","BSTAR":"0.00001811900000","MEAN_MOTION_DDOT":"0.0000000000000","TIME_SYSTEM":"UTC","MEAN_MOTION":"15.06392871","SEMIMAJOR_AXIS":"6925.370","NORAD_CAT_ID":"45577","PERIOD":"95.593","RCS_SIZE":"LARGE","REV_AT_EPOCH":"7669","SITE":"AFETR","OBJECT_ID":"2020-025AY","CENTER_NAME":"EARTH","CLASSIFICATION_TYPE":"U"},{"CLASSIFICATION_TYPE":"U","CENTER_NAME":"EARTH","OBJECT_ID":"2020-025AZ","SITE":"AFETR","REV_AT_EPOCH":"7665","PERIOD":"95.593","RCS_SIZE":"LARGE","NORAD_CAT_ID":"45578","SEMIMAJOR_AXIS":"6925.409","MEAN_MOTION":"15.06380385","TIME_SYSTEM":"UTC","MEAN_MOTION_DDOT":"0.0000000000000","BSTAR":"-0.00004210700000","FILE":"3106454","COUNTRY_CODE":"US","MEAN_ANOMALY":"270.9011","MEAN_MOTION_DOT":"-0.00000908","RA_OF_ASC_NODE":"288.9094","EPHEMERIS_TYPE":"0","APOAPSIS":"547.969","ECCENTRICITY":"0.00010040","GP_ID":"183839536","REF_FRAME":"TEME","INCLINATION":"53.0550","MEAN_ELEMENT_THEORY":"SGP4","ARG_OF_PERICENTER":"89.2093","OBJECT_NAME":"STARLINK-1331","OBJECT_TYPE":"PAYLOAD","DECAY_DATE":null,"EPOCH":"2021-08-31T13:02:21.336000","PERIAPSIS":"546.578","ELEMENT_SET_NO":"999","LAUNCH_DATE":"2020-04-22","TLE_LINE1":"1 45578U 20025AZ  21243.54330250 -.00000908  00000-0 -42107-4 0  9999","TLE_LINE2":"2 45578  53.0550 288.9094 0001004  89.2093 270.9011 15.06380385 76658"},{"SEMIMAJOR_AXIS":"6925.378","MEAN_MOTION":"15.06390391","TIME_SYSTEM":"UTC","MEAN_MOTION_DDOT":"0.0000000000000","BSTAR":"0.00006367700000","SITE":"AFETR","REV_AT_EPOCH":"7720","PERIOD":"95.593","RCS_SIZE":"LARGE","NORAD_CAT_ID":"45579","CENTER_NAME":"EARTH","OBJECT_ID":"2020-025BA","CLASSIFICATION_TYPE":"U","EPOCH":"2021-08-31T12:50:21.898752","PERIAPSIS":"543.724","ELEMENT_SET_NO":"999","LAUNCH_DATE":"2020-04-22","TLE_LINE1":"1 45579U 20025BA  21243.53497568  .00000666  00000-0  63677-4 0  9999","TLE_LINE2":"2 45579  53.0528 248.9471 0005081 184.9945 175.0994 15.06390391 77202","OBJECT_NAME":"STARLINK-1332","OBJECT_TYPE":"PAYLOAD","DECAY_DATE":null,"APOAPSIS":"550.762","ECCENTRICITY":"0.00050810","GP_ID":"183814202","REF_FRAME":"TEME","INCLINATION":"53.0528","MEAN_ELEMENT_THEORY":"SGP4","ARG_OF_PERICENTER":"184.9945","COUNTRY_CODE":"US","FILE":"3106313","MEAN_ANOMALY":"175.0994","MEAN_MOTION_DOT":"0.00000666","RA_OF_ASC_NODE":"248.9471","EPHEMERIS_TYPE":"0"},{"CLASSIFICATION_TYPE":"U","CENTER_NAME":"EARTH","OBJECT_ID":"2020-025BB","RCS_SIZE":"LARGE","PERIOD":"95.593","NORAD_CAT_ID":"45580","REV_AT_EPOCH":"7649","SITE":"AFETR","BSTAR":"-0.00000606010000","SEMIMAJOR_AXIS":"6925.373","MEAN_MOTION":"15.06392047","TIME_SYSTEM":"UTC","MEAN_MOTION_DDOT":"0.0000000000000","RA_OF_ASC_NODE":"299.1797","EPHEMERIS_TYPE":"0","FILE":"3106313","COUNTRY_CODE":"US","MEAN_MOTION_DOT":"-0.00000372","MEAN_ANOMALY":"265.2134","REF_FRAME":"TEME","INCLINATION":"53.0540","MEAN_ELEMENT_THEORY":"SGP4","ARG_OF_PERICENTER":"94.8974","APOAPSIS":"547.955","ECCENTRICITY":"0.00010350","GP_ID":"183813463","OBJECT_TYPE":"PAYLOAD","DECAY_DATE":null,"OBJECT_NAME":"STARLINK-1333","TLE_LINE2":"2 45580  53.0540 299.1797 0001035  94.8974 265.2134 15.06392047 76491","EPOCH":"2021-08-31T11:36:05.699520","PERIAPSIS":"546.521","LAUNCH_DATE":"2020-04-22","ELEMENT_SET_NO":"999","TLE_LINE1":"1 45580U 20025BB  21243.48339930 -.00000372  00000-0 -60601-5 0  9994"},{"MEAN_MOTION":"15.06393479","SEMIMAJOR_AXIS":"6925.369","MEAN_MOTION_DDOT":"0.0000000000000","TIME_SYSTEM":"UTC","BSTAR":"-0.00001522100000","SITE":"AFETR","REV_AT_EPOCH":"7663","RCS_SIZE":"LARGE","PERIOD":"95.593","NORAD_CAT_ID":"45581","OBJECT_ID":"2020-025BC","CENTER_NAME":"EARTH","CLASSIFICATION_TYPE":"U","PERIAPSIS":"546.482","EPOCH":"2021-08-31T11:42:43.682112","TLE_LINE1":"1 45581U 20025BC  21243.48800558 -.00000508  00000-0 -15221-4 0  9992","LAUNCH_DATE":"2020-04-22","ELEMENT_SET_NO":"999","TLE_LINE2":"2 45581  53.0539 289.1617 0001085  78.9617 281.1494 15.06393479 76634","OBJECT_NAME":"STARLINK-1335","DECAY_DATE":null,"OBJECT_TYPE":"PAYLOAD","ECCENTRICITY":"0.00010850","APOAPSIS":"547.985","GP_ID":"183813214","INCLINATION":"53.0539","REF_FRAME":"TEME","ARG_OF_PERICENTER":"78.9617","MEAN_ELEMENT_THEORY":"SGP4","COUNTRY_CODE":"US","FILE":"3106313","MEAN_ANOMALY":"281.1494","MEAN_MOTION_DOT":"-0.00000508","RA_OF_ASC_NODE":"289.1617","EPHEMERIS_TYPE":"0"}];
